start=new Date('2023-06-14T00:00:00.000Z').valueOf();
sats=[{"CENTER_NAME":"EARTH","RA_OF_ASC_NODE":"267.4642","MEAN_ELEMENT_THEORY":"SGP4","INCLINATION":"53.0540","MEAN_MOTION_DOT":"0.00013344","GP_ID":"233837345","OBJECT_TYPE":"PAYLOAD","RCS_SIZE":"LARGE","REV_AT_EPOCH":"15848","TLE_LINE2":"2 46077  53.0540 267.4642 0001030  66.4492 293.6605 15.06413248158480","SITE":"AFETR","ECCENTRICITY":"0.00010300","CLASSIFICATION_TYPE":"U","PERIAPSIS":"546.460","ARG_OF_PERICENTER":"66.4492","ELEMENT_SET_NO":"999","DECAY_DATE":null,"FILE":"3932134","REF_FRAME":"TEME","PERIOD":"95.591","EPHEMERIS_TYPE":"0","OBJECT_ID":"2020-055BC","MEAN_MOTION":"15.06413248","SEMIMAJOR_AXIS":"6925.308","TIME_SYSTEM":"UTC","APOAPSIS":"547.886","LAUNCH_DATE":"2020-08-07","MEAN_MOTION_DDOT":"0.0000000000000","COUNTRY_CODE":"US","NORAD_CAT_ID":"46077","BSTAR":"0.00091268000000","EPOCH":"2023-06-13T07:35:15.452448","OBJECT_NAME":"STARLINK-1559","TLE_LINE1":"1 46077U 20055BC  23164.31615107  .00013344  00000-0  91268-3 0  9990","MEAN_ANOMALY":"293.6605"},{"ECCENTRICITY":"0.00008820","TLE_LINE2":"2 46078  53.0533 268.7610 0000882  91.6124 268.4966 15.06396677157955","SITE":"AFETR","ELEMENT_SET_NO":"999","DECAY_DATE":null,"CLASSIFICATION_TYPE":"U","PERIAPSIS":"546.613","ARG_OF_PERICENTER":"91.6124","GP_ID":"233847125","MEAN_MOTION_DOT":"0.00028103","MEAN_ELEMENT_THEORY":"SGP4","INCLINATION":"53.0533","REV_AT_EPOCH":"15795","RCS_SIZE":"LARGE","OBJECT_TYPE":"PAYLOAD","RA_OF_ASC_NODE":"268.7610","CENTER_NAME":"EARTH","EPOCH":"2023-06-13T00:41:16.228320","BSTAR":"0.00189820000000","COUNTRY_CODE":"US","NORAD_CAT_ID":"46078","MEAN_ANOMALY":"268.4966","TLE_LINE1":"1 46078U 20055BD  23164.02866005  .00028103  00000-0  18982-2 0  9994","OBJECT_NAME":"STARLINK-1563","TIME_SYSTEM":"UTC","APOAPSIS":"547.835","MEAN_MOTION_DDOT":"0.0000000000000","LAUNCH_DATE":"2020-08-07","OBJECT_ID":"2020-055BD","MEAN_MOTION":"15.06396677","SEMIMAJOR_AXIS":"6925.359","PERIOD":"95.592","REF_FRAME":"TEME","FILE":"3932228","EPHEMERIS_TYPE":"0"},{"OBJECT_ID":"2020-055BE","MEAN_MOTION":"15.06418248","SEMIMAJOR_AXIS":"6925.293","EPHEMERIS_TYPE":"0","FILE":"3932233","REF_FRAME":"TEME","PERIOD":"95.591","MEAN_ANOMALY":"291.9393","TLE_LINE1":"1 46079U 20055BE  23164.28667139  .00020850  00000-0  14138-2 0  9990","OBJECT_NAME":"STARLINK-1566","COUNTRY_CODE":"US","NORAD_CAT_ID":"46079","EPOCH":"2023-06-13T06:52:48.408096","BSTAR":"0.00141380000000","LAUNCH_DATE":"2020-08-07","MEAN_MOTION_DDOT":"0.0000000000000","TIME_SYSTEM":"UTC","APOAPSIS":"547.877","RA_OF_ASC_NODE":"267.6006","CENTER_NAME":"EARTH","PERIAPSIS":"546.438","CLASSIFICATION_TYPE":"U","ARG_OF_PERICENTER":"68.1706","ELEMENT_SET_NO":"999","DECAY_DATE":null,"TLE_LINE2":"2 46079  53.0533 267.6006 0001039  68.1706 291.9393 15.06418248157991","SITE":"AFETR","ECCENTRICITY":"0.00010390","OBJECT_TYPE":"PAYLOAD","REV_AT_EPOCH":"15799","RCS_SIZE":"LARGE","MEAN_ELEMENT_THEORY":"SGP4","INCLINATION":"53.0533","MEAN_MOTION_DOT":"0.00020850","GP_ID":"233847141"},{"FILE":"3932134","REF_FRAME":"TEME","PERIOD":"95.592","EPHEMERIS_TYPE":"0","SEMIMAJOR_AXIS":"6925.333","MEAN_MOTION":"15.06405156","OBJECT_ID":"2020-055BF","APOAPSIS":"547.814","TIME_SYSTEM":"UTC","LAUNCH_DATE":"2020-08-07","MEAN_MOTION_DDOT":"0.0000000000000","NORAD_CAT_ID":"46080","COUNTRY_CODE":"US","BSTAR":"0.00154560000000","EPOCH":"2023-06-13T07:28:36.464160","MEAN_ANOMALY":"285.1997","TLE_LINE1":"1 46080U 20055BF  23164.31153315  .00022818  00000-0  15456-2 0  9992","OBJECT_NAME":"STARLINK-1568","CENTER_NAME":"EARTH","RA_OF_ASC_NODE":"267.4770","INCLINATION":"53.0537","MEAN_ELEMENT_THEORY":"SGP4","MEAN_MOTION_DOT":"0.00022818","GP_ID":"233837093","OBJECT_TYPE":"PAYLOAD","RCS_SIZE":"LARGE","REV_AT_EPOCH":"15850","SITE":"AFETR","TLE_LINE2":"2 46080  53.0537 267.4770 0000890  74.9090 285.1997 15.06405156158505","ECCENTRICITY":"0.00008900","PERIAPSIS":"546.581","ARG_OF_PERICENTER":"74.9090","CLASSIFICATION_TYPE":"U","DECAY_DATE":null,"ELEMENT_SET_NO":"999"},{"TIME_SYSTEM":"UTC","APOAPSIS":"547.848","LAUNCH_DATE":"2020-08-07","MEAN_MOTION_DDOT":"0.0000000000000","NORAD_CAT_ID":"46081","COUNTRY_CODE":"US","BSTAR":"0.00189300000000","EPOCH":"2023-06-13T09:53:17.013408","OBJECT_NAME":"STARLINK-1571","TLE_LINE1":"1 46081U 20055BG  23164.41200247  .00028035  00000-0  18930-2 0  9998","MEAN_ANOMALY":"277.3317","FILE":"3932134","REF_FRAME":"TEME","PERIOD":"95.591","EPHEMERIS_TYPE":"0","OBJECT_ID":"2020-055BG","MEAN_MOTION":"15.06410334","SEMIMAJOR_AXIS":"6925.317","MEAN_ELEMENT_THEORY":"SGP4","INCLINATION":"53.0532","GP_ID":"233837845","MEAN_MOTION_DOT":"0.00028035","OBJECT_TYPE":"PAYLOAD","REV_AT_EPOCH":"15853","RCS_SIZE":"LARGE","TLE_LINE2":"2 46081  53.0532 267.0410 0000962  82.7781 277.3317 15.06410334158538","SITE":"AFETR","ECCENTRICITY":"0.00009620","CLASSIFICATION_TYPE":"U","PERIAPSIS":"546.516","ARG_OF_PERICENTER":"82.7781","ELEMENT_SET_NO":"999","DECAY_DATE":null,"CENTER_NAME":"EARTH","RA_OF_ASC_NODE":"267.0410"},{"MEAN_ANOMALY":"288.5127","TLE_LINE1":"1 46082U 20055BH  23164.30141151  .00019411  00000-0  13175-2 0  9999","OBJECT_NAME":"STARLINK-1578","EPOCH":"2023-06-13T07:14:01.954464","BSTAR":"0.00131750000000","NORAD_CAT_ID":"46082","COUNTRY_CODE":"US","MEAN_MOTION_DDOT":"0.0000000000000","LAUNCH_DATE":"2020-08-07","TIME_SYSTEM":"UTC","APOAPSIS":"547.912","OBJECT_ID":"2020-055BH","MEAN_MOTION":"15.06425565","SEMIMAJOR_AXIS":"6925.270","EPHEMERIS_TYPE":"0","REF_FRAME":"TEME","PERIOD":"95.591","FILE":"3932134","DECAY_DATE":null,"ELEMENT_SET_NO":"999","PERIAPSIS":"546.358","ARG_OF_PERICENTER":"71.5984","CLASSIFICATION_TYPE":"U","ECCENTRICITY":"0.00011220","TLE_LINE2":"2 46082  53.0548 267.5358 0001122  71.5984 288.5127 15.06425565158526","SITE":"AFETR","RCS_SIZE":"LARGE","REV_AT_EPOCH":"15852","OBJECT_TYPE":"PAYLOAD","MEAN_MOTION_DOT":"0.00019411","GP_ID":"233837596","INCLINATION":"53.0548","MEAN_ELEMENT_THEORY":"SGP4","RA_OF_ASC_NODE":"267.5358","CENTER_NAME":"EARTH"},{"CLASSIFICATION_TYPE":"U","PERIAPSIS":"546.438","ARG_OF_PERICENTER":"66.7835","ELEMENT_SET_NO":"999","DECAY_DATE":null,"SITE":"AFETR","TLE_LINE2":"2 46083  53.0539 267.0729 0001010  66.7835 293.3260 15.06424775158536","ECCENTRICITY":"0.00010100","OBJECT_TYPE":"PAYLOAD","REV_AT_EPOCH":"15853","RCS_SIZE":"LARGE","MEAN_ELEMENT_THEORY":"SGP4","INCLINATION":"53.0539","GP_ID":"233836344","MEAN_MOTION_DOT":"0.00021149","RA_OF_ASC_NODE":"267.0729","CENTER_NAME":"EARTH","OBJECT_NAME":"STARLINK-1579","TLE_LINE1":"1 46083U 20055BJ  23164.40461632  .00021149  00000-0  14335-2 0  9990","MEAN_ANOMALY":"293.3260","NORAD_CAT_ID":"46083","COUNTRY_CODE":"US","BSTAR":"0.00143350000000","EPOCH":"2023-06-13T09:42:38.850048","LAUNCH_DATE":"2020-08-07","MEAN_MOTION_DDOT":"0.0000000000000","APOAPSIS":"547.837","TIME_SYSTEM":"UTC","SEMIMAJOR_AXIS":"6925.273","OBJECT_ID":"2020-055BJ","MEAN_MOTION":"15.06424775","EPHEMERIS_TYPE":"0","FILE":"3932134","PERIOD":"95.591","REF_FRAME":"TEME"},{"PERIOD":"95.593","REF_FRAME":"TEME","FILE":"3932134","EPHEMERIS_TYPE":"0","SEMIMAJOR_AXIS":"6925.400","MEAN_MOTION":"15.06383189","OBJECT_ID":"2020-057A","APOAPSIS":"548.900","TIME_SYSTEM":"UTC","MEAN_MOTION_DDOT":"0.0000000000000","LAUNCH_DATE":"2020-08-18","EPOCH":"2023-06-13T05:43:48.790560","BSTAR":"-0.00003770400000","NORAD_CAT_ID":"46117","COUNTRY_CODE":"US","TLE_LINE1":"1 46117U 20057A   23164.23875915 -.00000843  00000-0 -37704-4 0  9991","OBJECT_NAME":"STARLINK-1585","MEAN_ANOMALY":"279.4128","CENTER_NAME":"EARTH","RA_OF_ASC_NODE":"107.8122","MEAN_MOTION_DOT":"-0.00000843","GP_ID":"233836847","INCLINATION":"53.0532","MEAN_ELEMENT_THEORY":"SGP4","RCS_SIZE":"LARGE","REV_AT_EPOCH":"15555","OBJECT_TYPE":"PAYLOAD","ECCENTRICITY":"0.00023610","SITE":"AFETR","TLE_LINE2":"2 46117  53.0532 107.8122 0002361  80.7128 279.4128 15.06383189155556","DECAY_DATE":null,"ELEMENT_SET_NO":"999","ARG_OF_PERICENTER":"80.7128","PERIAPSIS":"545.630","CLASSIFICATION_TYPE":"U"},{"RA_OF_ASC_NODE":"127.4800","CENTER_NAME":"EARTH","ELEMENT_SET_NO":"999","DECAY_DATE":null,"PERIAPSIS":"546.510","ARG_OF_PERICENTER":"91.3590","CLASSIFICATION_TYPE":"U","ECCENTRICITY":"0.00010720","SITE":"AFETR","TLE_LINE2":"2 46118  53.0544 127.4800 0001072  91.3590 268.7521 15.06387349156562","REV_AT_EPOCH":"15656","RCS_SIZE":"LARGE","OBJECT_TYPE":"PAYLOAD","GP_ID":"233837097","MEAN_MOTION_DOT":"0.00000102","MEAN_ELEMENT_THEORY":"SGP4","INCLINATION":"53.0544","SEMIMAJOR_AXIS":"6925.387","MEAN_MOTION":"15.06387349","OBJECT_ID":"2020-057B","EPHEMERIS_TYPE":"0","PERIOD":"95.593","REF_FRAME":"TEME","FILE":"3932134","TLE_LINE1":"1 46118U 20057B   23164.31431148  .00000102  00000-0  25758-4 0  9999","MEAN_ANOMALY":"268.7521","OBJECT_NAME":"STARLINK-1588","BSTAR":"0.00002575800000","EPOCH":"2023-06-13T07:32:36.511872","COUNTRY_CODE":"US","NORAD_CAT_ID":"46118","MEAN_MOTION_DDOT":"0.0000000000000","LAUNCH_DATE":"2020-08-18","APOAPSIS":"547.995","TIME_SYSTEM":"UTC"},{"EPHEMERIS_TYPE":"0","PERIOD":"95.593","REF_FRAME":"TEME","FILE":"3932134","SEMIMAJOR_AXIS":"6925.393","MEAN_MOTION":"15.06385531","OBJECT_ID":"2020-057C","MEAN_MOTION_DDOT":"0.0000000000000","LAUNCH_DATE":"2020-08-18","APOAPSIS":"548.205","TIME_SYSTEM":"UTC","TLE_LINE1":"1 46119U 20057C   23164.30325589  .00000158  00000-0  29485-4 0  9992","OBJECT_NAME":"STARLINK-1593","MEAN_ANOMALY":"262.5132","BSTAR":"0.00002948500000","EPOCH":"2023-06-13T07:16:41.308896","COUNTRY_CODE":"US","NORAD_CAT_ID":"46119","CENTER_NAME":"EARTH","RA_OF_ASC_NODE":"127.5247","REV_AT_EPOCH":"15654","RCS_SIZE":"LARGE","OBJECT_TYPE":"PAYLOAD","GP_ID":"233837849","MEAN_MOTION_DOT":"0.00000158","MEAN_ELEMENT_THEORY":"SGP4","INCLINATION":"53.0546","ELEMENT_SET_NO":"999","DECAY_DATE":null,"PERIAPSIS":"546.311","CLASSIFICATION_TYPE":"U","ARG_OF_PERICENTER":"97.6012","ECCENTRICITY":"0.00013670","SITE":"AFETR","TLE_LINE2":"2 46119  53.0546 127.5247 0001367  97.6012 262.5132 15.06385531156545"}];
